OBJECT_NAME,OBJECT_ID,EPOCH,MEAN_MOTION,ECCENTRICITY,INCLINATION,RA_OF_ASC_NODE,ARG_OF_PERICENTER,MEAN_ANOMALY,EPHEMERIS_TYPE,CLASSIFICATION_TYPE,NORAD_CAT_ID,ELEMENT_SET_NO,REV_AT_EPOCH,BSTAR,MEAN_MOTION_DOT,MEAN_MOTION_DDOT
STARLINK-31509,2024-073Y,2026-06-17T03:48:32.134464,15.27579018,.00008519,43.0018,116.6643,260.7302,99.3454,0,U,59533,999,12138,.23910279E-4,.396E-5,0
STARLINK-31734,2024-074A,2026-06-17T22:46:48.180000,15.27573593,.0001844,43.0079,126.4218,286.4109,73.6540,0,U,59534,999,12147,-.3215199E-5,-.351E-5,0
STARLINK-31738,2024-074B,2026-06-17T21:37:08.330304,15.27578627,.00012838,42.9902,133.7454,227.3070,132.7673,0,U,59535,999,12138,.36852272E-4,.752E-5,0
STARLINK-31721,2024-074C,2026-06-17T21:40:09.247584,15.27579743,.00014043,43.0029,137.3145,262.9707,97.0985,0,U,59536,999,12134,.31236326E-4,.597E-5,0
STARLINK-31737,2024-074D,2026-06-17T22:00:31.101696,15.27575919,.00015921,42.9950,137.4131,266.9627,93.1043,0,U,59537,999,12134,.26604477E-4,.47E-5,0
STARLINK-31539,2024-074F,2026-06-17T22:17:10.127616,15.27563924,.000228,43.0022,137.5054,271.6077,88.4513,0,U,59539,999,12134,.81008749E-4,.1966E-4,0
STARLINK-31397,2024-074G,2026-06-17T05:21:47.745792,15.27577915,.00009219,43.0012,141.6725,268.4522,91.6224,0,U,59540,999,12123,.21101126E-4,.319E-5,0
STARLINK-31481,2024-074H,2026-06-17T22:53:57.854112,15.27572256,.00010955,43.0029,136.8423,269.8540,90.2186,0,U,59541,999,12135,-.7160457E-5,-.459E-5,0
STARLINK-31540,2024-074J,2026-06-16T15:56:44.044224,15.27577149,.00015882,43.0009,144.3519,245.4536,114.6150,0,U,59542,999,12115,.52984119E-4,.1196E-4,0
STARLINK-31574,2024-074K,2026-06-17T22:22:42.788352,15.27579891,.00011396,43.0009,137.5333,269.1905,90.8816,0,U,59543,999,12134,.34105064E-4,.677E-5,0
STARLINK-31556,2024-074L,2026-06-17T22:26:25.247616,15.27568520,.00013687,42.9999,137.5569,278.6253,81.4443,0,U,59544,999,12134,.7613729E-4,.1833E-4,0
STARLINK-31582,2024-074M,2026-06-17T22:43:04.448928,15.27571666,.000082,43.0006,137.6366,272.5793,87.4965,0,U,59545,999,12134,-.107124E-4,-.557E-5,0
STARLINK-31519,2024-074N,2026-06-15T16:07:45.074208,15.27579097,.000213,43.0097,149.8136,289.9038,70.1584,0,U,59546,999,12100,.32239286E-4,.625E-5,0
STARLINK-31736,2024-074P,2026-06-17T22:05:36.765888,15.27571589,.00013574,43.0010,130.5154,263.9213,96.1484,0,U,59547,999,12142,.60920419E-4,.1414E-4,0
STARLINK-31675,2024-074Q,2026-06-17T04:35:32.205408,15.27574061,.00018933,42.9966,141.4264,240.1833,119.8830,0,U,59548,999,12123,-.36478843E-3,-.10285E-3,0
STARLINK-31722,2024-074R,2026-06-17T08:50:15.510048,15.27581545,.00008986,43.0014,140.1843,265.4447,94.6302,0,U,59549,999,12126,.57383726E-4,.1317E-4,0
STARLINK-31741,2024-074S,2026-06-17T23:08:45.776544,15.27576980,.00009564,43.0021,136.9166,271.3868,88.6874,0,U,59550,999,12135,.14229269E-4,.13E-5,0
STARLINK-31699,2024-074T,2026-06-17T21:54:57.446496,15.27576263,.00009956,42.9961,137.3808,206.0795,154.0007,0,U,59551,999,12134,.9220955E-5,-.8E-7,0
STARLINK-31750,2024-074U,2026-06-17T04:55:53.538528,15.27578760,.00014277,43.0018,141.5345,270.0898,89.9790,0,U,59552,999,12123,.33323604E-4,.655E-5,0
STARLINK-31723,2024-074V,2026-06-17T22:06:03.719232,15.27576716,.00010419,42.9988,137.4423,261.5430,98.5303,0,U,59553,999,12134,-.8438379E-5,-.494E-5,0
STARLINK-31724,2024-074W,2026-06-17T03:19:06.458016,15.27587745,.00010094,43.0050,105.8586,269.3321,90.7415,0,U,59554,999,12163,.87138148E-4,.2137E-4,0
STARLINK-31730,2024-074X,2026-06-17T22:48:38.863584,15.27537920,.00011836,43.0007,137.6642,258.3339,101.7380,0,U,59555,999,12134,.16268251E-3,.4212E-4,0
STARLINK-31718,2024-074Y,2026-06-17T05:16:14.980512,15.27576050,.00012473,43.0042,141.6400,273.9258,86.1451,0,U,59556,999,12123,.36483704E-4,.742E-5,0
YAOGAN-42 02,2024-075A,2026-06-17T16:44:05.468064,15.22972665,.00053218,34.9997,266.3792,180.4664,179.6047,0,U,59557,999,12016,.31549309E-3,.7567E-4,0
STARLINK-31747,2024-076A,2026-06-16T06:47:46.991328,15.27586815,.0001001,43.0021,161.6128,276.7047,83.3690,0,U,59564,999,12169,.72678E-4,.1739E-4,0
STARLINK-31388,2024-076B,2026-06-16T16:58:45.044256,15.27569445,.00011107,43.0043,170.0357,270.8532,89.2193,0,U,59565,999,12164,-.5708955E-5,-.419E-5,0
STARLINK-31332,2024-076C,2026-06-17T06:18:02.408832,15.27576405,.00016092,43.0019,166.4414,281.2285,78.8386,0,U,59566,999,12173,.25196464E-4,.431E-5,0
STARLINK-31689,2024-076D,2026-06-16T16:50:11.009184,15.27575485,.00008865,42.9993,166.5135,273.9686,86.1065,0,U,59567,999,12168,.27863031E-4,.505E-5,0
STARLINK-31471,2024-076E,2026-06-16T06:54:56.236032,15.27580600,.0001114,42.9974,172.0233,261.8576,98.2149,0,U,59568,999,12149,.29869E-4,.56E-5,0
STARLINK-31470,2024-076F,2026-06-16T16:40:55.774272,15.27577511,.00012609,42.9989,166.4671,272.3267,87.7440,0,U,59569,999,12159,.16135702E-4,.182E-5,0
