STARLINK-31509          
1 59533U 24073Y   26168.15870526  .00000396  00000+0  23910-4 0  9994
2 59533  43.0018 116.6643 0000851 260.7302  99.3454 15.27579018121388
STARLINK-31734          
1 59534U 24074A   26168.94916875 -.00000351  00000+0 -32152-5 0  9993
2 59534  43.0079 126.4218 0001844 286.4109  73.6540 15.27573593121479
STARLINK-31738          
1 59535U 24074B   26168.90079086  .00000752  00000+0  36852-4 0  9997
2 59535  42.9902 133.7454 0001283 227.3070 132.7673 15.27578627121381
STARLINK-31721          
1 59536U 24074C   26168.90288481  .00000597  00000+0  31236-4 0  9997
2 59536  43.0029 137.3145 0001404 262.9707  97.0985 15.27579743121343
STARLINK-31737          
1 59537U 24074D   26168.91702664  .00000470  00000+0  26604-4 0  9996
2 59537  42.9950 137.4131 0001592 266.9627  93.1043 15.27575919121347
STARLINK-31539          
1 59539U 24074F   26168.92858944  .00001966  00000+0  81009-4 0  9993
2 59539  43.0022 137.5054 0002280 271.6077  88.4513 15.27563924121345
STARLINK-31397          
1 59540U 24074G   26168.22346928  .00000319  00000+0  21101-4 0  9990
2 59540  43.0012 141.6725 0000921 268.4522  91.6224 15.27577915121234
STARLINK-31481          
1 59541U 24074H   26168.95414183 -.00000459  00000+0 -71605-5 0  9992
2 59541  43.0029 136.8423 0001095 269.8540  90.2186 15.27572256121350
STARLINK-31540          
1 59542U 24074J   26167.66439866  .00001196  00000+0  52984-4 0  9990
2 59542  43.0009 144.3519 0001588 245.4536 114.6150 15.27577149121157
STARLINK-31574          
1 59543U 24074K   26168.93243968  .00000677  00000+0  34105-4 0  9996
2 59543  43.0009 137.5333 0001139 269.1905  90.8816 15.27579891121342
STARLINK-31556          
1 59544U 24074L   26168.93501444  .00001833  00000+0  76137-4 0  9999
2 59544  42.9999 137.5569 0001368 278.6253  81.4443 15.27568520121344
STARLINK-31582          
1 59545U 24074M   26168.94657927 -.00000557  00000+0 -10712-4 0  9990
2 59545  43.0006 137.6366 0000820 272.5793  87.4965 15.27571666121346
STARLINK-31519          
1 59546U 24074N   26166.67204947  .00000625  00000+0  32239-4 0  9991
2 59546  43.0097 149.8136 0002130 289.9038  70.1584 15.27579097121002
STARLINK-31736          
1 59547U 24074P   26168.92056442  .00001414  00000+0  60920-4 0  9992
2 59547  43.0010 130.5154 0001357 263.9213  96.1484 15.27571589121423
STARLINK-31675          
1 59548U 24074Q   26168.19134497 -.00010285  00000+0 -36479-3 0  9998
2 59548  42.9966 141.4264 0001893 240.1833 119.8830 15.27574061121230
STARLINK-31722          
1 59549U 24074R   26168.36823507  .00001317  00000+0  57384-4 0  9998
2 59549  43.0014 140.1843 0000898 265.4447  94.6302 15.27581545121263
STARLINK-31741          
1 59550U 24074S   26168.96441871  .00000130  00000+0  14229-4 0  9999
2 59550  43.0021 136.9166 0000956 271.3868  88.6874 15.27576980121356
STARLINK-31699          
1 59551U 24074T   26168.91316489 -.00000008  00000+0  92210-5 0  9993
2 59551  42.9961 137.3808 0000995 206.0795 154.0007 15.27576263121342
STARLINK-31750          
1 59552U 24074U   26168.20548077  .00000655  00000+0  33324-4 0  9993
2 59552  43.0018 141.5345 0001427 270.0898  89.9790 15.27578760121234
STARLINK-31723          
1 59553U 24074V   26168.92087638 -.00000494  00000+0 -84384-5 0  9990
2 59553  42.9988 137.4423 0001041 261.5430  98.5303 15.27576716121346
STARLINK-31724          
1 59554U 24074W   26168.13826919  .00002137  00000+0  87138-4 0  9990
2 59554  43.0050 105.8586 0001009 269.3321  90.7415 15.27587745121631
STARLINK-31730          
1 59555U 24074X   26168.95044981  .00004212  00000+0  16268-3 0  9993
2 59555  43.0007 137.6642 0001183 258.3339 101.7380 15.27537920121342
STARLINK-31718          
1 59556U 24074Y   26168.21961783  .00000742  00000+0  36484-4 0  9998
2 59556  43.0042 141.6400 0001247 273.9258  86.1451 15.27576050121233
YAOGAN-42 02            
1 59557U 24075A   26168.69728551  .00007567  00000+0  31549-3 0  9994
2 59557  34.9997 266.3792 0005321 180.4664 179.6047 15.22972665120168
STARLINK-31747          
1 59564U 24076A   26167.28318277  .00001739  00000+0  72678-4 0  9991
2 59564  43.0021 161.6128 0001001 276.7047  83.3690 15.27586815121697
STARLINK-31388          
1 59565U 24076B   26167.70746579 -.00000419  00000+0 -57090-5 0  9997
2 59565  43.0043 170.0357 0001110 270.8532  89.2193 15.27569445121643
STARLINK-31332          
1 59566U 24076C   26168.26252788  .00000431  00000+0  25196-4 0  9997
2 59566  43.0019 166.4414 0001609 281.2285  78.8386 15.27576405121736
STARLINK-31689          
1 59567U 24076D   26167.70151631  .00000505  00000+0  27863-4 0  9996
2 59567  42.9993 166.5135 0000886 273.9686  86.1065 15.27575485121683
STARLINK-31471          
1 59568U 24076E   26167.28815088  .00000560  00000+0  29869-4 0  9992
2 59568  42.9974 172.0233 0001114 261.8576  98.2149 15.27580600121494
STARLINK-31470          
1 59569U 24076F   26167.69508998  .00000182  00000+0  16136-4 0  9990
2 59569  42.9989 166.4671 0001260 272.3267  87.7440 15.27577511121595
